{
    "links": {
        "self": "http://www.neowsapp.com/rest/v1/neo/3388397?api_key=iIulBulltgU6a56xZRHN4H3l9WmuAYTsLGpBGhQ2"
    },
    "id": "3388397",
    "neo_reference_id": "3388397",
    "name": "(2007 TU68)",
    "designation": "2007 TU68",
    "nasa_jpl_url": "http://ssd.jpl.nasa.gov/sbdb.cgi?sstr=3388397",
    "absolute_magnitude_h": 25.7,
    "estimated_diameter": {
        "kilometers": {
            "estimated_diameter_min": 0.0192555078,
            "estimated_diameter_max": 0.0430566244
        },
        "meters": {
            "estimated_diameter_min": 19.2555078188,
            "estimated_diameter_max": 43.0566244241
        },
        "miles": {
            "estimated_diameter_min": 0.0119648141,
            "estimated_diameter_max": 0.0267541378
        },
        "feet": {
            "estimated_diameter_min": 63.1742402722,
            "estimated_diameter_max": 141.2618956756
        }
    },
    "is_potentially_hazardous_asteroid": false,
    "close_approach_data": [
        {
            "close_approach_date": "2007-10-16",
            "close_approach_date_full": "2007-Oct-16 06:27",
            "epoch_date_close_approach": 1192516020000,
            "relative_velocity": {
                "kilometers_per_second": "7.5993842205",
                "kilometers_per_hour": "27357.7831939192",
                "miles_per_hour": "16999.0625629105"
            },
            "miss_distance": {
                "astronomical": "0.0341499186",
                "lunar": "13.2843183354",
                "kilometers": "5108755.083233382",
                "miles": "3174433.2082973916"
            },
            "orbiting_body": "Earth"
        }
    ],
    "orbital_data": {
        "orbit_id": "9",
        "orbit_determination_date": "2017-04-06 09:05:40",
        "first_observation_date": "2007-10-13",
        "last_observation_date": "2007-10-20",
        "data_arc_in_days": 7,
        "observations_used": 27,
        "orbit_uncertainty": "8",
        "minimum_orbit_intersection": ".0236701",
        "jupiter_tisserand_invariant": "3.326",
        "epoch_osculation": "2454388.5",
        "eccentricity": ".5670956652184524",
        "semi_major_axis": "2.341969425348783",
        "inclination": "1.751356019720965",
        "ascending_node_longitude": "194.3624335718801",
        "orbital_period": "1309.092269907412",
        "perihelion_distance": "1.013848716159338",
        "perihelion_argument": "204.2807842111858",
        "aphelion_distance": "3.670090134538227",
        "perihelion_time": "2454402.587652369040",
        "mean_anomaly": "356.1258996256902",
        "mean_motion": ".2749997141343304",
        "equinox": "J2000",
        "orbit_class": {
            "orbit_class_type": "APO",
            "orbit_class_description": "Near-Earth asteroid orbits which cross the Earth’s orbit similar to that of 1862 Apollo",
            "orbit_class_range": "a (semi-major axis) > 1.0 AU; q (perihelion) < 1.017 AU"
        }
    },
    "is_sentry_object": false
}